[{"OBJECT_NAME":"STARLINK-35975","OBJECT_ID":"2025-265K","EPOCH":"2026-03-09T22:47:00.148128","MEAN_MOTION":15.27600436,"ECCENTRICITY":5.741e-5,"INCLINATION":42.9929,"RA_OF_ASC_NODE":276.432,"ARG_OF_PERICENTER":45.6802,"MEAN_ANOMALY":314.4097,"EPHEMERIS_TYPE":0,"CLASSIFICATION_TYPE":"U","NORAD_CAT_ID":66525,"ELEMENT_SET_NO":999,"REV_AT_EPOCH":1715,"BSTAR":0.0013094902,"MEAN_MOTION_DOT":0.00035971,"MEAN_MOTION_DDOT":0},{"OBJECT_NAME":"FENGYUN 1C DEB","OBJECT_ID":"1999-025AJJ","EPOCH":"2026-03-09T18:40:58.380672","MEAN_MOTION":15.18672988,"ECCENTRICITY":0.00638575,"INCLINATION":98.7226,"RA_OF_ASC_NODE":259.4919,"ARG_OF_PERICENTER":168.3626,"MEAN_ANOMALY":191.9098,"EPHEMERIS_TYPE":0,"CLASSIFICATION_TYPE":"U","NORAD_CAT_ID":30520,"ELEMENT_SET_NO":999,"REV_AT_EPOCH":2360,"BSTAR":0.0014000942,"MEAN_MOTION_DOT":0.0003064,"MEAN_MOTION_DDOT":0}]
